GSAT0101 (GALILEO-PFM)  
1 37846U 11060A   25081.17793772 -.00000082  00000+0  00000+0 0  9994
2 37846  57.1076 354.0125 0004072   5.8138 354.2178  1.70475844 83410
GSAT0102 (GALILEO-FM2)  
1 37847U 11060B   25081.26056190 -.00000082  00000+0  00000+0 0  9991
2 37847  57.1085 354.0108 0005126 352.4224 103.6276  1.70476051 83427
GSAT0103 (GALILEO-FM3)  
1 38857U 12055A   25083.56395276  .00000054  00000+0  00000+0 0  9992
2 38857  55.5419 113.8951 0005815 279.0481  80.9622  1.70473494 77482
GSAT0201 (GALILEO 5)    
1 40128U 14050A   25084.44047654  .00000003  00000+0  00000+0 0  9999
2 40128  49.3631 291.7160 1623676 162.0493 204.4409  1.85519715 69993
GSAT0202 (GALILEO 6)    
1 40129U 14050B   25085.23667306  .00000000  00000+0  00000+0 0  9997
2 40129  49.3788 290.7644 1623526 162.8598 203.3479  1.85520394 72131
GSAT0203 (GALILEO 7)    
1 40544U 15017A   25085.06357067 -.00000079  00000+0  00000+0 0  9990
2 40544  56.9303 353.7857 0023982  44.7959 315.4260  1.70475447 62227
GSAT0204 (GALILEO 8)    
1 40545U 15017B   25077.10541200 -.00000094  00000+0  00000+0 0  9998
2 40545  56.9092 354.0363 0003778 283.8463  76.1362  1.70475554 24474
GSAT0205 (GALILEO 9)    
1 40889U 15045A   25083.91274548  .00000031  00000+0  00000+0 0  9994
2 40889  55.0991 234.0121 0005426  49.2104 310.7919  1.70473768 59355
GSAT0206 (GALILEO 10)   
1 40890U 15045B   25084.13336632  .00000030  00000+0  00000+0 0  9993
2 40890  55.1002 234.0015 0003329  52.0219 307.9623  1.70473721 59395
GSAT0209 (GALILEO 12)   
1 41174U 15079A   25083.71554761  .00000055  00000+0  00000+0 0  9991
2 41174  55.5627 113.6028 0005113 312.8020  47.2315  1.70474529 57111
GSAT0208 (GALILEO 11)   
1 41175U 15079B   25084.52208336  .00000059  00000+0  00000+0 0  9990
2 41175  55.5615 113.5779 0004566 313.6963  46.3453  1.70474426 57701
GSAT0211 (GALILEO 14)   
1 41549U 16030A   25084.64569203  .00000027  00000+0  00000+0 0  9994
2 41549  55.2496 234.0288 0003018  22.1099 337.8545  1.70473851 55021
GSAT0210 (GALILEO 13)   
1 41550U 16030B   25082.55715731  .00000038  00000+0  00000+0 0  9995
2 41550  55.2480 234.0846 0001568 188.1854 171.7726  1.70473949 54984
GSAT0207 (GALILEO 15)   
1 41859U 16069A   25080.48948725  .00000039  00000+0  00000+0 0  9991
2 41859  55.2270 113.6251 0005463 300.2992  59.7149  1.70474564 51685
GSAT0212 (GALILEO 16)   
1 41860U 16069B   25082.68978559  .00000048  00000+0  00000+0 0  9995
2 41860  55.2257 113.5600 0003874 321.8299  38.2152  1.70474740 51976
GSAT0213 (GALILEO 17)   
1 41861U 16069C   25081.29815208  .00000042  00000+0  00000+0 0  9997
2 41861  55.2271 113.6060 0005653 285.6568  74.3496  1.70475012 51815
GSAT0214 (GALILEO 18)   
1 41862U 16069D   25084.96318798  .00000061  00000+0  00000+0 0  9998
2 41862  55.2280 113.4973 0004719 288.7193  71.3100  1.70474724 52007
GSAT0215 (GALILEO 19)   
1 43055U 17079A   25082.52039100  .00000038  00000+0  00000+0 0  9997
2 43055  55.2279 233.9052 0000192   8.6970 351.2639  1.70474547 45305
GSAT0216 (GALILEO 20)   
1 43056U 17079B   25083.39844651  .00000034  00000+0  00000+0 0  9995
2 43056  55.2279 233.8810 0001569 302.0392  57.9032  1.70474646 45335
GSAT0217 (GALILEO 21)   
1 43057U 17079C   25084.79218971  .00000025  00000+0  00000+0 0  9991
2 43057  55.2275 233.8410 0001726 346.3769  13.5689  1.70474516 45345
GSAT0218 (GALILEO 22)   
1 43058U 17079D   25079.73301596  .00000037  00000+0  00000+0 0  9999
2 43058  55.2277 233.9776 0001894 291.5798  68.3585  1.70474613 45287
GSAT0221 (GALILEO 25)   
1 43564U 18060A   25080.22141065 -.00000084  00000+0  00000+0 0  9994
2 43564  57.2828 354.0053 0005084 309.0933  50.8887  1.70475499 41456
GSAT0222 (GALILEO 26)   
1 43565U 18060B   25084.54643956 -.00000079  00000+0  00000+0 0  9994
2 43565  57.2854 353.8912 0003856 284.8555  75.1302  1.70475148 41567
GSAT0219 (GALILEO 23)   
1 43566U 18060C   25080.07523474 -.00000084  00000+0  00000+0 0  9997
2 43566  57.2854 354.0137 0004660 319.5747  40.4178  1.70475488 41465
GSAT0220 (GALILEO 24)   
1 43567U 18060D   25083.81553854 -.00000079  00000+0  00000+0 0  9992
2 43567  57.2847 353.9134 0004629 312.1341  47.8542  1.70475351 41518
GSAT0223 (GALILEO 27)   
1 49809U 21116A   25078.71026229 -.00000088  00000+0  00000+0 0  9997
2 49809  57.2757 353.9432 0001614 282.0879 275.2811  1.70475703 20431
GSAT0224 (GALILEO 28)   
1 49810U 21116B   25078.48169294 -.00000089  00000+0  00000+0 0  9994
2 49810  57.2766 353.9475 0001367 301.1632 228.4726  1.70475753 20457
GSAT0225 (GALILEO 29)   
1 59598U 24079A   25081.11812978  .00000040  00000+0  00000+0 0  9993
2 59598  54.8440 113.7264 0003168 250.5131  88.9502  1.70475085  5602
GSAT0227 (GALILEO 30)   
1 59600U 24079C   25083.09478653  .00000049  00000+0  00000+0 0  9993
2 59600  54.8412 113.6702 0000295 229.0519 131.0195  1.70474850  5696
GSAT0232 (GALILEO 32)   
1 61182U 24167A   25085.41378285  .00000021  00000+0  00000+0 0  9997
2 61182  55.3364 233.5969 0002735 188.1307 350.3137  1.70474017  3239
GSAT0226 (GALILEO 31)   
1 61183U 24167B   25084.35461753  .00000028  00000+0  00000+0 0  9990
2 61183  55.3353 233.6315 0001913 134.3903 226.5788  1.70474176  3205
